CREATION_DATE,OBJECT_NAME,OBJECT_ID,EPOCH,MEAN_MOTION,ECCENTRICITY,INCLINATION,RA_OF_ASC_NODE,ARG_OF_PERICENTER,MEAN_ANOMALY,EPHEMERIS_TYPE,CLASSIFICATION_TYPE,NORAD_CAT_ID,ELEMENT_SET_NO,REV_AT_EPOCH,BSTAR,MEAN_MOTION_DOT,MEAN_MOTION_DDOT,SEMIMAJOR_AXIS,PERIOD,APOAPSIS,PERIAPSIS,OBJECT_TYPE,RCS_SIZE,COUNTRY_CODE,LAUNCH_DATE
2021-06-08T22:56:10,ONEWEB-0224,2021-045AD,2021-06-08T20:00:01.000224,15.37844909,0.0005899,87.3999,272.7098,205.1598,33.9495,0,U,48794,999,297,0.000014974,0.00000601,0,6830.62,93.638,456.515,448.456,PAYLOAD,MEDIUM,UK,5/28/2021
2021-06-08T22:56:10,ONEWEB-0233,2021-045AE,2021-06-08T20:00:01.000224,15.38065807,0.0005098,87.4005,272.7107,212.0404,36.0627,0,U,48795,999,297,-0.000035648,-0.00001287,0,6829.966,93.624,455.313,448.349,PAYLOAD,LARGE,UK,5/28/2021
2021-06-08T22:56:10,ONEWEB-0190,2021-045AF,2021-06-08T20:00:01.000224,15.38945406,0.0006756,87.399,272.7042,237.8767,44.4383,0,U,48796,999,298,0.000072088,0.0000282,0,6827.364,93.571,453.841,444.616,PAYLOAD,MEDIUM,UK,5/28/2021
2021-06-08T18:36:59,ONEWEB-0236,2021-045AG,2021-06-08T14:00:01.000224,15.38409869,0.0004618,87.3963,272.7918,233.546,85.1625,0,U,48797,999,184,0.00043224,0.00016414,0,6828.948,93.603,453.967,447.659,PAYLOAD,MEDIUM,UK,5/28/2021
2021-06-08T22:56:10,ONEWEB-0248,2021-045AH,2021-06-08T20:00:01.000224,15.41534902,0.0007001,87.3992,272.686,227.9326,156.9226,0,U,48798,999,299,-0.00017697,-0.00007359,0,6819.716,93.413,446.355,436.806,PAYLOAD,MEDIUM,UK,5/28/2021
2021-06-08T22:56:10,ONEWEB-0225,2021-045AJ,2021-06-08T20:00:01.000224,15.4091926,0.0004168,87.3973,272.6897,221.519,138.7284,0,U,48799,999,299,-0.00012946,-0.00005261,0,6821.532,93.451,446.24,440.554,PAYLOAD,LARGE,UK,5/28/2021
2021-06-08T22:56:10,ONEWEB-0215,2021-045AK,2021-06-08T20:00:01.000224,15.38818965,0.0006351,87.3977,272.7001,239.8889,37.9263,0,U,48800,999,298,-0.00012292,-0.00004661,0,6827.738,93.578,453.939,445.266,PAYLOAD,LARGE,UK,5/28/2021
2021-06-08T22:16:10,ONEWEB-0216,2021-045AL,2021-06-08T20:00:01.000224,15.38669599,0.0005432,87.3975,272.7021,239.6323,32.1665,0,U,48801,999,298,-0.00010878,-0.00004099,0,6828.179,93.587,453.754,446.335,PAYLOAD,MEDIUM,UK,5/28/2021
2021-06-08T22:16:10,ONEWEB-0239,2021-045AM,2021-06-08T20:00:01.000224,15.39356816,0.0008186,87.397,272.6969,226.5225,71.9371,0,U,48802,999,299,0.000085174,0.0000337,0,6826.147,93.546,453.6,442.424,PAYLOAD,LARGE,UK,5/28/2021
2021-06-08T04:09:27,TIANZHOU 2,2021-046A,2021-06-07T14:15:15.897600,15.62320177,0.000834,41.47,341.6383,242.1749,200.6289,0,U,48803,999,619,0.000039856,0.00003281,0,6759.094,92.171,386.596,375.322,PAYLOAD,,PRC,5/29/2021
2021-06-07T18:15:06,DRAGON CRS-22,2021-048A,2021-06-07T14:36:36.947808,15.48961912,0.0003782,51.6455,30.1036,70.6982,328.9602,0,U,48831,999,28711,9.06E-06,0.00000048,0,6797.899,92.965,422.335,417.193,PAYLOAD,LARGE,US,6/3/2021
