ONEWEB-0224             
1 48794U 21045AD  21159.83334491  .00000601  00000-0  14974-4 0  9993
2 48794  87.3999 272.7098 0005899 205.1598  33.9495 15.37844909  2976
ONEWEB-0233             
1 48795U 21045AE  21159.83334491 -.00001287  00000-0 -35648-4 0  9998
2 48795  87.4005 272.7107 0005098 212.0404  36.0627 15.38065807  2975
ONEWEB-0190             
1 48796U 21045AF  21159.83334491  .00002820  00000-0  72088-4 0  9990
2 48796  87.3990 272.7042 0006756 237.8767  44.4383 15.38945406  2980
ONEWEB-0236             
1 48797U 21045AG  21159.58334491  .00016414  00000-0  43224-3 0  9996
2 48797  87.3963 272.7918 0004618 233.5460  85.1625 15.38409869  1844
ONEWEB-0248             
1 48798U 21045AH  21159.83334491 -.00007359  00000-0 -17697-3 0  9990
2 48798  87.3992 272.6860 0007001 227.9326 156.9226 15.41534902  2991
ONEWEB-0225             
1 48799U 21045AJ  21159.83334491 -.00005261  00000-0 -12946-3 0  9993
2 48799  87.3973 272.6897 0004168 221.5190 138.7284 15.40919260  2996
ONEWEB-0215             
1 48800U 21045AK  21159.83334491 -.00004661  00000-0 -12292-3 0  9993
2 48800  87.3977 272.7001 0006351 239.8889  37.9263 15.38818965  2987
ONEWEB-0216             
1 48801U 21045AL  21159.83334491 -.00004099  00000-0 -10878-3 0  9997
2 48801  87.3975 272.7021 0005432 239.6323  32.1665 15.38669599  2988
ONEWEB-0239             
1 48802U 21045AM  21159.83334491  .00003370  00000-0  85174-4 0  9999
2 48802  87.3970 272.6969 0008186 226.5225  71.9371 15.39356816  2991
TIANZHOU-2              
1 48803U 21046A   21158.59393400  .00003281  00000-0  39856-4 0  9995
2 48803  41.4700 341.6383 0008340 242.1749 200.6289 15.62320177  6190
DRAGON CRS-22           
1 48831U 21048A   21158.60876097  .00000048  00000-0  90596-5 0  9995
2 48831  51.6455  30.1036 0003782  70.6982 328.9602 15.48961912287112
